ORBCOMM FM24            
1 25478U 98053D   24192.78270503  .00001420  00000+0  53342-3 0  9997
2 25478  45.0091  85.3664 0001745 338.9669  21.1106 14.35922377348335
ORBCOMM FM25            
1 25479U 98053E   24192.88901521  .00001520  00000+0  56779-3 0  9998
2 25479  45.0085  83.1131 0004262 343.1537  16.9168 14.35905068348645
ORBCOMM FM26            
1 25480U 98053F   24192.71130584  .00001266  00000+0  48648-3 0  9998
2 25480  45.0081  78.3382 0006341 359.3095   0.7743 14.35313198348552
ORBCOMM FM27            
1 25481U 98053G   24192.73852026  .00001507  00000+0  56346-3 0  9995
2 25481  45.0067  84.0859 0000766  44.1263 315.9645 14.35895233348558
ORBCOMM FM28            
1 25482U 98053H   24192.91550684  .00001308  00000+0  49135-3 0  9998
2 25482  45.0077  21.5166 0003370  38.2385 321.8702 14.36311650349255
ORBCOMM FM30            
1 25980U 99065A   24192.52825162  .00000977  00000+0  38572-3 0  9992
2 25980  45.0318 264.7932 0004112 109.6533 250.4759 14.35451371285321
ORBCOMM FM31            
1 25981U 99065B   24192.49395705  .00001014  00000+0  39861-3 0  9999
2 25981  45.0229 258.6050 0002387 164.4978 195.5943 14.35443853284879
ORBCOMM FM32            
1 25982U 99065C   24192.58762676  .00000971  00000+0  39134-3 0  9999
2 25982  45.0161 272.4012 0004642 146.5991 213.5149 14.34448906285513
